<?xml version="1.0" encoding="UTF-8"?>
<ndm xmlns:xsi="http://www.w3.org/2001/XMLSchema-instance" xsi:noNamespaceSchemaLocation="https://sanaregistry.org/r/ndmxml_unqualified/ndmxml-2.0.0-master-2.0.xsd">
<omm id="CCSDS_OMM_VERS" version="2.0">
<header><CREATION_DATE/><ORIGINATOR/></header><body><segment><metadata><OBJECT_NAME>IRIDIUM 119</OBJECT_NAME><OBJECT_ID>2017-061E</OBJECT_ID><CENTER_NAME>EARTH</CENTER_NAME><REF_FRAME>TEME</REF_FRAME><TIME_SYSTEM>UTC</TIME_SYSTEM><MEAN_ELEMENT_THEORY>SGP4</MEAN_ELEMENT_THEORY></metadata><data><meanElements><EPOCH>2025-07-01T11:16:58.704096</EPOCH><MEAN_MOTION>14.34218091</MEAN_MOTION><ECCENTRICITY>.0002576</ECCENTRICITY><INCLINATION>86.3996</INCLINATION><RA_OF_ASC_NODE>171.8238</RA_OF_ASC_NODE><ARG_OF_PERICENTER>86.4548</ARG_OF_PERICENTER><MEAN_ANOMALY>273.6942</MEAN_ANOMALY></meanElements><tleParameters><EPHEMERIS_TYPE>0</EPHEMERIS_TYPE><CLASSIFICATION_TYPE>U</CLASSIFICATION_TYPE><NORAD_CAT_ID>42959</NORAD_CAT_ID><ELEMENT_SET_NO>999</ELEMENT_SET_NO><REV_AT_EPOCH>40454</REV_AT_EPOCH><BSTAR>.19897E-4</BSTAR><MEAN_MOTION_DOT>.76E-6</MEAN_MOTION_DOT><MEAN_MOTION_DDOT>0</MEAN_MOTION_DDOT></tleParameters></data></segment></body></omm>
<omm id="CCSDS_OMM_VERS" version="2.0">
<header><CREATION_DATE/><ORIGINATOR/></header><body><segment><metadata><OBJECT_NAME>IRIDIUM 107</OBJECT_NAME><OBJECT_ID>2017-061F</OBJECT_ID><CENTER_NAME>EARTH</CENTER_NAME><REF_FRAME>TEME</REF_FRAME><TIME_SYSTEM>UTC</TIME_SYSTEM><MEAN_ELEMENT_THEORY>SGP4</MEAN_ELEMENT_THEORY></metadata><data><meanElements><EPOCH>2025-07-01T11:44:22.773408</EPOCH><MEAN_MOTION>14.34216848</MEAN_MOTION><ECCENTRICITY>.0002373</ECCENTRICITY><INCLINATION>86.4001</INCLINATION><RA_OF_ASC_NODE>171.8352</RA_OF_ASC_NODE><ARG_OF_PERICENTER>75.7281</ARG_OF_PERICENTER><MEAN_ANOMALY>284.4178</MEAN_ANOMALY></meanElements><tleParameters><EPHEMERIS_TYPE>0</EPHEMERIS_TYPE><CLASSIFICATION_TYPE>U</CLASSIFICATION_TYPE><NORAD_CAT_ID>42960</NORAD_CAT_ID><ELEMENT_SET_NO>999</ELEMENT_SET_NO><REV_AT_EPOCH>40455</REV_AT_EPOCH><BSTAR>-.31877E-4</BSTAR><MEAN_MOTION_DOT>-.69E-6</MEAN_MOTION_DOT><MEAN_MOTION_DDOT>0</MEAN_MOTION_DDOT></tleParameters></data></segment></body></omm>
<omm id="CCSDS_OMM_VERS" version="2.0">
<header><CREATION_DATE/><ORIGINATOR/></header><body><segment><metadata><OBJECT_NAME>IRIDIUM 132</OBJECT_NAME><OBJECT_ID>2017-061G</OBJECT_ID><CENTER_NAME>EARTH</CENTER_NAME><REF_FRAME>TEME</REF_FRAME><TIME_SYSTEM>UTC</TIME_SYSTEM><MEAN_ELEMENT_THEORY>SGP4</MEAN_ELEMENT_THEORY></metadata><data><meanElements><EPOCH>2025-07-01T11:53:30.719616</EPOCH><MEAN_MOTION>14.34217221</MEAN_MOTION><ECCENTRICITY>.0002214</ECCENTRICITY><INCLINATION>86.4001</INCLINATION><RA_OF_ASC_NODE>171.8146</RA_OF_ASC_NODE><ARG_OF_PERICENTER>84.8722</ARG_OF_PERICENTER><MEAN_ANOMALY>275.2727</MEAN_ANOMALY></meanElements><tleParameters><EPHEMERIS_TYPE>0</EPHEMERIS_TYPE><CLASSIFICATION_TYPE>U</CLASSIFICATION_TYPE><NORAD_CAT_ID>42961</NORAD_CAT_ID><ELEMENT_SET_NO>999</ELEMENT_SET_NO><REV_AT_EPOCH>40455</REV_AT_EPOCH><BSTAR>-.16147E-4</BSTAR><MEAN_MOTION_DOT>-.25E-6</MEAN_MOTION_DOT><MEAN_MOTION_DDOT>0</MEAN_MOTION_DDOT></tleParameters></data></segment></body></omm>
<omm id="CCSDS_OMM_VERS" version="2.0">
<header><CREATION_DATE/><ORIGINATOR/></header><body><segment><metadata><OBJECT_NAME>IRIDIUM 136</OBJECT_NAME><OBJECT_ID>2017-061H</OBJECT_ID><CENTER_NAME>EARTH</CENTER_NAME><REF_FRAME>TEME</REF_FRAME><TIME_SYSTEM>UTC</TIME_SYSTEM><MEAN_ELEMENT_THEORY>SGP4</MEAN_ELEMENT_THEORY></metadata><data><meanElements><EPOCH>2025-07-01T12:39:10.789344</EPOCH><MEAN_MOTION>14.34217565</MEAN_MOTION><ECCENTRICITY>.0002417</ECCENTRICITY><INCLINATION>86.4000</INCLINATION><RA_OF_ASC_NODE>171.8063</RA_OF_ASC_NODE><ARG_OF_PERICENTER>84.5574</ARG_OF_PERICENTER><MEAN_ANOMALY>275.5897</MEAN_ANOMALY></meanElements><tleParameters><EPHEMERIS_TYPE>0</EPHEMERIS_TYPE><CLASSIFICATION_TYPE>U</CLASSIFICATION_TYPE><NORAD_CAT_ID>42962</NORAD_CAT_ID><ELEMENT_SET_NO>999</ELEMENT_SET_NO><REV_AT_EPOCH>40457</REV_AT_EPOCH><BSTAR>-.54614E-5</BSTAR><MEAN_MOTION_DOT>.4E-7</MEAN_MOTION_DOT><MEAN_MOTION_DDOT>0</MEAN_MOTION_DDOT></tleParameters></data></segment></body></omm>
<omm id="CCSDS_OMM_VERS" version="2.0">
<header><CREATION_DATE/><ORIGINATOR/></header><body><segment><metadata><OBJECT_NAME>IRIDIUM 139</OBJECT_NAME><OBJECT_ID>2017-061J</OBJECT_ID><CENTER_NAME>EARTH</CENTER_NAME><REF_FRAME>TEME</REF_FRAME><TIME_SYSTEM>UTC</TIME_SYSTEM><MEAN_ELEMENT_THEORY>SGP4</MEAN_ELEMENT_THEORY></metadata><data><meanElements><EPOCH>2025-07-01T11:07:50.721600</EPOCH><MEAN_MOTION>14.34217570</MEAN_MOTION><ECCENTRICITY>.0002243</ECCENTRICITY><INCLINATION>86.4002</INCLINATION><RA_OF_ASC_NODE>171.8889</RA_OF_ASC_NODE><ARG_OF_PERICENTER>80.9066</ARG_OF_PERICENTER><MEAN_ANOMALY>279.2383</MEAN_ANOMALY></meanElements><tleParameters><EPHEMERIS_TYPE>0</EPHEMERIS_TYPE><CLASSIFICATION_TYPE>U</CLASSIFICATION_TYPE><NORAD_CAT_ID>42963</NORAD_CAT_ID><ELEMENT_SET_NO>999</ELEMENT_SET_NO><REV_AT_EPOCH>40457</REV_AT_EPOCH><BSTAR>-.99339E-5</BSTAR><MEAN_MOTION_DOT>-.8E-7</MEAN_MOTION_DOT><MEAN_MOTION_DDOT>0</MEAN_MOTION_DDOT></tleParameters></data></segment></body></omm>
<omm id="CCSDS_OMM_VERS" version="2.0">
<header><CREATION_DATE/><ORIGINATOR/></header><body><segment><metadata><OBJECT_NAME>IRIDIUM 125</OBJECT_NAME><OBJECT_ID>2017-061K</OBJECT_ID><CENTER_NAME>EARTH</CENTER_NAME><REF_FRAME>TEME</REF_FRAME><TIME_SYSTEM>UTC</TIME_SYSTEM><MEAN_ELEMENT_THEORY>SGP4</MEAN_ELEMENT_THEORY></metadata><data><meanElements><EPOCH>2025-07-01T12:30:02.847456</EPOCH><MEAN_MOTION>14.34217259</MEAN_MOTION><ECCENTRICITY>.0002768</ECCENTRICITY><INCLINATION>86.4004</INCLINATION><RA_OF_ASC_NODE>171.9196</RA_OF_ASC_NODE><ARG_OF_PERICENTER>81.2637</ARG_OF_PERICENTER><MEAN_ANOMALY>278.8872</MEAN_ANOMALY></meanElements><tleParameters><EPHEMERIS_TYPE>0</EPHEMERIS_TYPE><CLASSIFICATION_TYPE>U</CLASSIFICATION_TYPE><NORAD_CAT_ID>42964</NORAD_CAT_ID><ELEMENT_SET_NO>999</ELEMENT_SET_NO><REV_AT_EPOCH>40459</REV_AT_EPOCH><BSTAR>-.15667E-4</BSTAR><MEAN_MOTION_DOT>-.24E-6</MEAN_MOTION_DOT><MEAN_MOTION_DDOT>0</MEAN_MOTION_DDOT></tleParameters></data></segment></body></omm>
<omm id="CCSDS_OMM_VERS" version="2.0">
<header><CREATION_DATE/><ORIGINATOR/></header><body><segment><metadata><OBJECT_NAME>IRIDIUM 135</OBJECT_NAME><OBJECT_ID>2017-083A</OBJECT_ID><CENTER_NAME>EARTH</CENTER_NAME><REF_FRAME>TEME</REF_FRAME><TIME_SYSTEM>UTC</TIME_SYSTEM><MEAN_ELEMENT_THEORY>SGP4</MEAN_ELEMENT_THEORY></metadata><data><meanElements><EPOCH>2025-07-01T11:52:47.172288</EPOCH><MEAN_MOTION>14.34217366</MEAN_MOTION><ECCENTRICITY>.0001969</ECCENTRICITY><INCLINATION>86.3970</INCLINATION><RA_OF_ASC_NODE>108.6407</RA_OF_ASC_NODE><ARG_OF_PERICENTER>87.5067</ARG_OF_PERICENTER><MEAN_ANOMALY>272.6354</MEAN_ANOMALY></meanElements><tleParameters><EPHEMERIS_TYPE>0</EPHEMERIS_TYPE><CLASSIFICATION_TYPE>U</CLASSIFICATION_TYPE><NORAD_CAT_ID>43070</NORAD_CAT_ID><ELEMENT_SET_NO>999</ELEMENT_SET_NO><REV_AT_EPOCH>39388</REV_AT_EPOCH><BSTAR>-.17612E-4</BSTAR><MEAN_MOTION_DOT>-.3E-6</MEAN_MOTION_DOT><MEAN_MOTION_DDOT>0</MEAN_MOTION_DDOT></tleParameters></data></segment></body></omm>
<omm id="CCSDS_OMM_VERS" version="2.0">
<header><CREATION_DATE/><ORIGINATOR/></header><body><segment><metadata><OBJECT_NAME>IRIDIUM 138</OBJECT_NAME><OBJECT_ID>2017-083B</OBJECT_ID><CENTER_NAME>EARTH</CENTER_NAME><REF_FRAME>TEME</REF_FRAME><TIME_SYSTEM>UTC</TIME_SYSTEM><MEAN_ELEMENT_THEORY>SGP4</MEAN_ELEMENT_THEORY></metadata><data><meanElements><EPOCH>2025-07-01T12:29:19.281984</EPOCH><MEAN_MOTION>14.34217599</MEAN_MOTION><ECCENTRICITY>.0002635</ECCENTRICITY><INCLINATION>86.3960</INCLINATION><RA_OF_ASC_NODE>108.2989</RA_OF_ASC_NODE><ARG_OF_PERICENTER>89.0665</ARG_OF_PERICENTER><MEAN_ANOMALY>271.0833</MEAN_ANOMALY></meanElements><tleParameters><EPHEMERIS_TYPE>0</EPHEMERIS_TYPE><CLASSIFICATION_TYPE>U</CLASSIFICATION_TYPE><NORAD_CAT_ID>43071</NORAD_CAT_ID><ELEMENT_SET_NO>999</ELEMENT_SET_NO><REV_AT_EPOCH>39387</REV_AT_EPOCH><BSTAR>-.48977E-5</BSTAR><MEAN_MOTION_DOT>.6E-7</MEAN_MOTION_DOT><MEAN_MOTION_DDOT>0</MEAN_MOTION_DDOT></tleParameters></data></segment></body></omm>

</ndm>
