IRIDIUM 119             
1 42959U 17061E   25182.47012389  .00000076  00000+0  19897-4 0  9996
2 42959  86.3996 171.8238 0002576  86.4548 273.6942 14.34218091404540
IRIDIUM 107             
1 42960U 17061F   25182.48915247 -.00000069  00000+0 -31877-4 0  9990
2 42960  86.4001 171.8352 0002373  75.7281 284.4178 14.34216848404557
IRIDIUM 132             
1 42961U 17061G   25182.49549444 -.00000025  00000+0 -16147-4 0  9999
2 42961  86.4001 171.8146 0002214  84.8722 275.2727 14.34217221404558
IRIDIUM 136             
1 42962U 17061H   25182.52720821  .00000004  00000+0 -54614-5 0  9992
2 42962  86.4000 171.8063 0002417  84.5574 275.5897 14.34217565404577
IRIDIUM 139             
1 42963U 17061J   25182.46378150 -.00000008  00000+0 -99339-5 0  9998
2 42963  86.4002 171.8889 0002243  80.9066 279.2383 14.34217570404576
IRIDIUM 125             
1 42964U 17061K   25182.52086629 -.00000024  00000+0 -15667-4 0  9992
2 42964  86.4004 171.9196 0002768  81.2637 278.8872 14.34217259404595
IRIDIUM 135             
1 43070U 17083A   25182.49499042 -.00000030  00000+0 -17612-4 0  9997
2 43070  86.3970 108.6407 0001969  87.5067 272.6354 14.34217366393880
IRIDIUM 138             
1 43071U 17083B   25182.52036206  .00000006  00000+0 -48977-5 0  9992
2 43071  86.3960 108.2989 0002635  89.0665 271.0833 14.34217599393875
